CCSDS_OMM_VERS = 2.0
CREATION_DATE  = 
ORIGINATOR     = 

OBJECT_NAME    = STARLINK-36910
OBJECT_ID      = 2026-039V
CENTER_NAME    = EARTH
REF_FRAME      = TEME
TIME_SYSTEM    = UTC
MEAN_ELEMENT_THEORY = SGP/SGP4

EPOCH          = 2026-03-03T14:00:03.000384
MEAN_MOTION    = 16.03710471
ECCENTRICITY   = .0001782
INCLINATION    = 42.9993
RA_OF_ASC_NODE = 92.9361
ARG_OF_PERICENTER = 278.8511
MEAN_ANOMALY   = 359.0975

EPHEMERIS_TYPE = 0
CLASSIFICATION_TYPE = U
NORAD_CAT_ID   = 68005
ELEMENT_SET_NO = 999
REV_AT_EPOCH   = 189
BSTAR          = -.1742E-2
MEAN_MOTION_DOT = -.115386E-1
MEAN_MOTION_DDOT = .44358E-3

CCSDS_OMM_VERS = 2.0
CREATION_DATE  = 
ORIGINATOR     = 

OBJECT_NAME    = STARLINK-36889
OBJECT_ID      = 2026-039W
CENTER_NAME    = EARTH
REF_FRAME      = TEME
TIME_SYSTEM    = UTC
MEAN_ELEMENT_THEORY = SGP/SGP4

EPOCH          = 2026-03-03T14:00:03.000384
MEAN_MOTION    = 16.03915477
ECCENTRICITY   = .0001816
INCLINATION    = 42.9993
RA_OF_ASC_NODE = 92.9323
ARG_OF_PERICENTER = 280.4569
MEAN_ANOMALY   = 358.8656

EPHEMERIS_TYPE = 0
CLASSIFICATION_TYPE = U
NORAD_CAT_ID   = 68006
ELEMENT_SET_NO = 999
REV_AT_EPOCH   = 189
BSTAR          = -.17025E-2
MEAN_MOTION_DOT = -.1141877E-1
MEAN_MOTION_DDOT = .43622E-3

CCSDS_OMM_VERS = 2.0
CREATION_DATE  = 
ORIGINATOR     = 

OBJECT_NAME    = STARLINK-36592
OBJECT_ID      = 2026-039X
CENTER_NAME    = EARTH
REF_FRAME      = TEME
TIME_SYSTEM    = UTC
MEAN_ELEMENT_THEORY = SGP/SGP4

EPOCH          = 2026-03-03T14:00:03.000384
MEAN_MOTION    = 16.04020760
ECCENTRICITY   = .000177
INCLINATION    = 42.9994
RA_OF_ASC_NODE = 92.9309
ARG_OF_PERICENTER = 280.3188
MEAN_ANOMALY   = 359.7055

EPHEMERIS_TYPE = 0
CLASSIFICATION_TYPE = U
NORAD_CAT_ID   = 68007
ELEMENT_SET_NO = 999
REV_AT_EPOCH   = 189
BSTAR          = -.16825E-2
MEAN_MOTION_DOT = -.1135742E-1
MEAN_MOTION_DDOT = .43247E-3

CCSDS_OMM_VERS = 2.0
CREATION_DATE  = 
ORIGINATOR     = 

OBJECT_NAME    = STARLINK-36911
OBJECT_ID      = 2026-039Y
CENTER_NAME    = EARTH
REF_FRAME      = TEME
TIME_SYSTEM    = UTC
MEAN_ELEMENT_THEORY = SGP/SGP4

EPOCH          = 2026-03-03T14:00:03.000384
MEAN_MOTION    = 16.04141886
ECCENTRICITY   = .0001806
INCLINATION    = 42.9995
RA_OF_ASC_NODE = 92.9290
ARG_OF_PERICENTER = 280.9532
MEAN_ANOMALY   = 359.7981

EPHEMERIS_TYPE = 0
CLASSIFICATION_TYPE = U
NORAD_CAT_ID   = 68008
ELEMENT_SET_NO = 999
REV_AT_EPOCH   = 189
BSTAR          = -.16671E-2
MEAN_MOTION_DOT = -.113372E-1
MEAN_MOTION_DDOT = .43166E-3

CCSDS_OMM_VERS = 2.0
CREATION_DATE  = 
ORIGINATOR     = 

OBJECT_NAME    = STARLINK-36956
OBJECT_ID      = 2026-039Z
CENTER_NAME    = EARTH
REF_FRAME      = TEME
TIME_SYSTEM    = UTC
MEAN_ELEMENT_THEORY = SGP/SGP4

EPOCH          = 2026-03-03T14:00:03.000384
MEAN_MOTION    = 16.04249068
ECCENTRICITY   = .0001794
INCLINATION    = 42.9993
RA_OF_ASC_NODE = 92.9271
ARG_OF_PERICENTER = 281.0417
MEAN_ANOMALY   = 0.4115

EPHEMERIS_TYPE = 0
CLASSIFICATION_TYPE = U
NORAD_CAT_ID   = 68009
ELEMENT_SET_NO = 999
REV_AT_EPOCH   = 189
BSTAR          = -.16475E-2
MEAN_MOTION_DOT = -.1127719E-1
MEAN_MOTION_DDOT = .42802E-3

CCSDS_OMM_VERS = 2.0
CREATION_DATE  = 
ORIGINATOR     = 

OBJECT_NAME    = STARLINK-36953
OBJECT_ID      = 2026-039AA
CENTER_NAME    = EARTH
REF_FRAME      = TEME
TIME_SYSTEM    = UTC
MEAN_ELEMENT_THEORY = SGP/SGP4

EPOCH          = 2026-03-03T14:00:03.000384
MEAN_MOTION    = 16.04501255
ECCENTRICITY   = .0001754
INCLINATION    = 42.9993
RA_OF_ASC_NODE = 92.9231
ARG_OF_PERICENTER = 282.6198
MEAN_ANOMALY   = 0.3392

EPHEMERIS_TYPE = 0
CLASSIFICATION_TYPE = U
NORAD_CAT_ID   = 68010
ELEMENT_SET_NO = 999
REV_AT_EPOCH   = 189
BSTAR          = -.16099E-2
MEAN_MOTION_DOT = -.1119137E-1
MEAN_MOTION_DDOT = .42331E-3

CCSDS_OMM_VERS = 2.0
CREATION_DATE  = 
ORIGINATOR     = 

OBJECT_NAME    = STARLINK-36991
OBJECT_ID      = 2026-039AB
CENTER_NAME    = EARTH
REF_FRAME      = TEME
TIME_SYSTEM    = UTC
MEAN_ELEMENT_THEORY = SGP/SGP4

EPOCH          = 2026-03-03T14:00:03.000384
MEAN_MOTION    = 16.04622844
ECCENTRICITY   = .0001787
INCLINATION    = 42.9993
RA_OF_ASC_NODE = 92.9214
ARG_OF_PERICENTER = 281.7453
MEAN_ANOMALY   = 1.9540

EPHEMERIS_TYPE = 0
CLASSIFICATION_TYPE = U
NORAD_CAT_ID   = 68011
ELEMENT_SET_NO = 999
REV_AT_EPOCH   = 189
BSTAR          = -.15891E-2
MEAN_MOTION_DOT = -.1112963E-1
MEAN_MOTION_DDOT = .41964E-3

CCSDS_OMM_VERS = 2.0
CREATION_DATE  = 
ORIGINATOR     = 

OBJECT_NAME    = STARLINK-36936
OBJECT_ID      = 2026-039AC
CENTER_NAME    = EARTH
REF_FRAME      = TEME
TIME_SYSTEM    = UTC
MEAN_ELEMENT_THEORY = SGP/SGP4

EPOCH          = 2026-03-03T14:00:03.000384
MEAN_MOTION    = 16.04866317
ECCENTRICITY   = .000187
INCLINATION    = 42.9993
RA_OF_ASC_NODE = 92.9175
ARG_OF_PERICENTER = 280.5022
MEAN_ANOMALY   = 4.6506

EPHEMERIS_TYPE = 0
CLASSIFICATION_TYPE = U
NORAD_CAT_ID   = 68012
ELEMENT_SET_NO = 999
REV_AT_EPOCH   = 189
BSTAR          = -.15645E-2
MEAN_MOTION_DOT = -.1112236E-1
MEAN_MOTION_DDOT = .42031E-3

CCSDS_OMM_VERS = 2.0
CREATION_DATE  = 
ORIGINATOR     = 

OBJECT_NAME    = STARLINK-36967
OBJECT_ID      = 2026-039AD
CENTER_NAME    = EARTH
REF_FRAME      = TEME
TIME_SYSTEM    = UTC
MEAN_ELEMENT_THEORY = SGP/SGP4

EPOCH          = 2026-03-03T14:00:03.000384
MEAN_MOTION    = 16.04369451
ECCENTRICITY   = .0001731
INCLINATION    = 42.9993
RA_OF_ASC_NODE = 92.9250
ARG_OF_PERICENTER = 283.1550
MEAN_ANOMALY   = 359.0318

EPHEMERIS_TYPE = 0
CLASSIFICATION_TYPE = U
NORAD_CAT_ID   = 68013
ELEMENT_SET_NO = 999
REV_AT_EPOCH   = 189
BSTAR          = -.1632E-2
MEAN_MOTION_DOT = -.112537E-1
MEAN_MOTION_DDOT = .42698E-3

CCSDS_OMM_VERS = 2.0
CREATION_DATE  = 
ORIGINATOR     = 

OBJECT_NAME    = STARLINK-36985
OBJECT_ID      = 2026-039AE
CENTER_NAME    = EARTH
REF_FRAME      = TEME
TIME_SYSTEM    = UTC
MEAN_ELEMENT_THEORY = SGP/SGP4

EPOCH          = 2026-03-03T14:00:03.000384
MEAN_MOTION    = 16.04734324
ECCENTRICITY   = .000176
INCLINATION    = 42.9993
RA_OF_ASC_NODE = 92.9195
ARG_OF_PERICENTER = 282.4628
MEAN_ANOMALY   = 1.9469

EPHEMERIS_TYPE = 0
CLASSIFICATION_TYPE = U
NORAD_CAT_ID   = 68014
ELEMENT_SET_NO = 999
REV_AT_EPOCH   = 189
BSTAR          = -.15729E-2
MEAN_MOTION_DOT = -.1109191E-1
MEAN_MOTION_DDOT = .41758E-3

